start=new Date('2021-10-29T00:00:00.000Z').valueOf();
sats=[{"FILE":"3189402","CLASSIFICATION_TYPE":"U","OBJECT_TYPE":"PAYLOAD","REF_FRAME":"TEME","TLE_LINE1":"1 45376U 20019S   21301.87237395 -.00000623  00000-0 -22937-4 0  9998","GP_ID":"188364517","SITE":"AFETR","MEAN_ELEMENT_THEORY":"SGP4","ARG_OF_PERICENTER":"84.4863","MEAN_MOTION_DOT":"-0.00000623","EPHEMERIS_TYPE":"0","DECAY_DATE":null,"ECCENTRICITY":"0.00018800","TLE_LINE2":"2 45376  53.0543 117.0588 0001880  84.4863 275.6341 15.06393584 89657","MEAN_MOTION_DDOT":"0.0000000000000","RA_OF_ASC_NODE":"117.0588","OBJECT_ID":"2020-019S","REV_AT_EPOCH":"8965","MEAN_MOTION":"15.06393584","TIME_SYSTEM":"UTC","CENTER_NAME":"EARTH","PERIAPSIS":"545.931","RCS_SIZE":"LARGE","INCLINATION":"53.0543","APOAPSIS":"548.535","ELEMENT_SET_NO":"999","COUNTRY_CODE":"US","OBJECT_NAME":"STARLINK-1304","NORAD_CAT_ID":"45376","LAUNCH_DATE":"2020-03-18","MEAN_ANOMALY":"275.6341","SEMIMAJOR_AXIS":"6925.368","EPOCH":"2021-10-28T20:56:13.109280","PERIOD":"95.593","BSTAR":"-0.00002293700000"},{"SEMIMAJOR_AXIS":"6925.332","EPOCH":"2021-10-28T18:22:15.655872","PERIOD":"95.592","BSTAR":"0.00009261700000","LAUNCH_DATE":"2020-03-18","MEAN_ANOMALY":"277.2892","COUNTRY_CODE":"US","ELEMENT_SET_NO":"999","NORAD_CAT_ID":"45377","OBJECT_NAME":"STARLINK-1305","MEAN_MOTION":"15.06405331","TIME_SYSTEM":"UTC","RCS_SIZE":"LARGE","CENTER_NAME":"EARTH","PERIAPSIS":"546.055","APOAPSIS":"548.339","INCLINATION":"53.0531","ECCENTRICITY":"0.00016490","DECAY_DATE":null,"OBJECT_ID":"2020-019T","RA_OF_ASC_NODE":"117.5387","TLE_LINE2":"2 45377  53.0531 117.5387 0001649  82.8285 277.2892 15.06405331 89642","MEAN_MOTION_DDOT":"0.0000000000000","REV_AT_EPOCH":"8964","MEAN_MOTION_DOT":"0.00001098","EPHEMERIS_TYPE":"0","SITE":"AFETR","MEAN_ELEMENT_THEORY":"SGP4","ARG_OF_PERICENTER":"82.8285","FILE":"3189402","OBJECT_TYPE":"PAYLOAD","REF_FRAME":"TEME","CLASSIFICATION_TYPE":"U","GP_ID":"188364767","TLE_LINE1":"1 45377U 20019T   21301.76545898  .00001098  00000-0  92617-4 0  9994"},{"ELEMENT_SET_NO":"999","COUNTRY_CODE":"US","OBJECT_NAME":"STARLINK-1310","NORAD_CAT_ID":"45378","MEAN_MOTION":"15.06399752","TIME_SYSTEM":"UTC","PERIAPSIS":"545.869","CENTER_NAME":"EARTH","RCS_SIZE":"LARGE","INCLINATION":"53.0543","APOAPSIS":"548.559","SEMIMAJOR_AXIS":"6925.349","PERIOD":"95.592","EPOCH":"2021-10-28T18:06:21.322080","BSTAR":"-0.00003398500000","LAUNCH_DATE":"2020-03-18","MEAN_ANOMALY":"273.5051","SITE":"AFETR","MEAN_ELEMENT_THEORY":"SGP4","ARG_OF_PERICENTER":"86.6160","FILE":"3189402","CLASSIFICATION_TYPE":"U","OBJECT_TYPE":"PAYLOAD","REF_FRAME":"TEME","TLE_LINE1":"1 45378U 20019U   21301.75441345 -.00000788  00000-0 -33985-4 0  9996","GP_ID":"188366019","DECAY_DATE":null,"ECCENTRICITY":"0.00019420","TLE_LINE2":"2 45378  53.0543 117.5906 0001942  86.6160 273.5051 15.06399752 89648","RA_OF_ASC_NODE":"117.5906","MEAN_MOTION_DDOT":"0.0000000000000","OBJECT_ID":"2020-019U","REV_AT_EPOCH":"8964","MEAN_MOTION_DOT":"-0.00000788","EPHEMERIS_TYPE":"0"},{"MEAN_ANOMALY":"281.5113","LAUNCH_DATE":"2020-03-18","BSTAR":"-0.00004130800000","EPOCH":"2021-10-28T19:47:12.193152","PERIOD":"95.592","SEMIMAJOR_AXIS":"6925.354","APOAPSIS":"548.600","INCLINATION":"53.0530","RCS_SIZE":"LARGE","CENTER_NAME":"EARTH","PERIAPSIS":"545.838","TIME_SYSTEM":"UTC","MEAN_MOTION":"15.06398290","NORAD_CAT_ID":"45379","OBJECT_NAME":"STARLINK-1319","COUNTRY_CODE":"US","ELEMENT_SET_NO":"999","EPHEMERIS_TYPE":"0","MEAN_MOTION_DOT":"-0.00000897","REV_AT_EPOCH":"8965","OBJECT_ID":"2020-019V","MEAN_MOTION_DDOT":"0.0000000000000","TLE_LINE2":"2 45379  53.0530 117.2768 0001994  78.6100 281.5113 15.06398290 89655","RA_OF_ASC_NODE":"117.2768","ECCENTRICITY":"0.00019940","DECAY_DATE":null,"GP_ID":"188366266","TLE_LINE1":"1 45379U 20019V   21301.82444668 -.00000897  00000-0 -41308-4 0  9995","REF_FRAME":"TEME","OBJECT_TYPE":"PAYLOAD","CLASSIFICATION_TYPE":"U","FILE":"3189402","ARG_OF_PERICENTER":"78.6100","MEAN_ELEMENT_THEORY":"SGP4","SITE":"AFETR"},{"COUNTRY_CODE":"US","ELEMENT_SET_NO":"999","NORAD_CAT_ID":"45380","OBJECT_NAME":"STARLINK-1207","MEAN_MOTION":"15.06406042","TIME_SYSTEM":"UTC","RCS_SIZE":"LARGE","PERIAPSIS":"546.125","CENTER_NAME":"EARTH","APOAPSIS":"548.265","INCLINATION":"53.0552","SEMIMAJOR_AXIS":"6925.330","PERIOD":"95.592","EPOCH":"2021-10-28T18:08:59.542080","BSTAR":"0.00015273000000","LAUNCH_DATE":"2020-03-18","MEAN_ANOMALY":"278.3051","SITE":"AFETR","MEAN_ELEMENT_THEORY":"SGP4","ARG_OF_PERICENTER":"81.8113","FILE":"3189402","OBJECT_TYPE":"PAYLOAD","REF_FRAME":"TEME","CLASSIFICATION_TYPE":"U","GP_ID":"188365018","TLE_LINE1":"1 45380U 20019W   21301.75624470  .00001994  00000-0  15273-3 0  9998","ECCENTRICITY":"0.00015450","DECAY_DATE":null,"OBJECT_ID":"2020-019W","RA_OF_ASC_NODE":"97.5844","TLE_LINE2":"2 45380  53.0552  97.5844 0001545  81.8113 278.3051 15.06406042 89917","MEAN_MOTION_DDOT":"0.0000000000000","REV_AT_EPOCH":"8991","MEAN_MOTION_DOT":"0.00001994","EPHEMERIS_TYPE":"0"},{"NORAD_CAT_ID":"45381","OBJECT_NAME":"STARLINK-1258","COUNTRY_CODE":"US","ELEMENT_SET_NO":"999","APOAPSIS":"548.302","INCLINATION":"53.0530","RCS_SIZE":"LARGE","PERIAPSIS":"546.156","CENTER_NAME":"EARTH","TIME_SYSTEM":"UTC","MEAN_MOTION":"15.06394967","BSTAR":"0.00012120000000","EPOCH":"2021-10-28T16:49:22.995840","PERIOD":"95.592","SEMIMAJOR_AXIS":"6925.364","MEAN_ANOMALY":"280.7067","LAUNCH_DATE":"2020-03-18","ARG_OF_PERICENTER":"79.4096","MEAN_ELEMENT_THEORY":"SGP4","SITE":"AFETR","TLE_LINE1":"1 45381U 20019X   21301.70096060  .00001524  00000-0  12120-3 0  9999","GP_ID":"188365268","OBJECT_TYPE":"PAYLOAD","REF_FRAME":"TEME","CLASSIFICATION_TYPE":"U","FILE":"3189402","REV_AT_EPOCH":"8990","OBJECT_ID":"2020-019X","TLE_LINE2":"2 45381  53.0530  97.8264 0001549  79.4096 280.7067 15.06394967 89905","MEAN_MOTION_DDOT":"0.0000000000000","RA_OF_ASC_NODE":"97.8264","ECCENTRICITY":"0.00015490","DECAY_DATE":null,"EPHEMERIS_TYPE":"0","MEAN_MOTION_DOT":"0.00001524"},{"SITE":"AFETR","MEAN_ELEMENT_THEORY":"SGP4","ARG_OF_PERICENTER":"72.0966","FILE":"3189402","OBJECT_TYPE":"PAYLOAD","REF_FRAME":"TEME","CLASSIFICATION_TYPE":"U","TLE_LINE1":"1 45382U 20019Y   21301.74519160 -.00000315  00000-0 -22299-5 0  9994","GP_ID":"188365519","ECCENTRICITY":"0.00015970","DECAY_DATE":null,"OBJECT_ID":"2020-019Y","RA_OF_ASC_NODE":"97.6330","TLE_LINE2":"2 45382  53.0539  97.6330 0001597  72.0966 288.0197 15.06395506 89731","MEAN_MOTION_DDOT":"0.0000000000000","REV_AT_EPOCH":"8973","MEAN_MOTION_DOT":"-0.00000315","EPHEMERIS_TYPE":"0","COUNTRY_CODE":"US","ELEMENT_SET_NO":"999","NORAD_CAT_ID":"45382","OBJECT_NAME":"STARLINK-1264","MEAN_MOTION":"15.06395506","TIME_SYSTEM":"UTC","RCS_SIZE":"LARGE","PERIAPSIS":"546.121","CENTER_NAME":"EARTH","APOAPSIS":"548.333","INCLINATION":"53.0539","SEMIMAJOR_AXIS":"6925.362","EPOCH":"2021-10-28T17:53:04.554240","PERIOD":"95.592","BSTAR":"-0.00000222990000","LAUNCH_DATE":"2020-03-18","MEAN_ANOMALY":"288.0197"},{"RCS_SIZE":"LARGE","PERIAPSIS":"546.027","CENTER_NAME":"EARTH","APOAPSIS":"548.387","INCLINATION":"53.0527","MEAN_MOTION":"15.06402243","TIME_SYSTEM":"UTC","NORAD_CAT_ID":"45383","OBJECT_NAME":"STARLINK-1266","COUNTRY_CODE":"US","ELEMENT_SET_NO":"999","MEAN_ANOMALY":"272.2236","LAUNCH_DATE":"2020-03-18","BSTAR":"0.00001086200000","SEMIMAJOR_AXIS":"6925.342","EPOCH":"2021-10-28T18:14:18.657888","PERIOD":"95.592","TLE_LINE1":"1 45383U 20019Z   21301.75993817 -.00000120  00000-0  10862-4 0  9996","GP_ID":"188365766","FILE":"3189402","REF_FRAME":"TEME","OBJECT_TYPE":"PAYLOAD","CLASSIFICATION_TYPE":"U","ARG_OF_PERICENTER":"87.8948","SITE":"AFETR","MEAN_ELEMENT_THEORY":"SGP4","EPHEMERIS_TYPE":"0","MEAN_MOTION_DOT":"-0.00000120","OBJECT_ID":"2020-019Z","MEAN_MOTION_DDOT":"0.0000000000000","TLE_LINE2":"2 45383  53.0527  97.5594 0001704  87.8948 272.2236 15.06402243 89910","RA_OF_ASC_NODE":"97.5594","REV_AT_EPOCH":"8991","ECCENTRICITY":"0.00017040","DECAY_DATE":null},{"REV_AT_EPOCH":"8991","OBJECT_ID":"2020-019AA","MEAN_MOTION_DDOT":"0.0000000000000","TLE_LINE2":"2 45384  53.0551  97.5968 0001688  89.2246 270.8936 15.06405238 89919","RA_OF_ASC_NODE":"97.5968","ECCENTRICITY":"0.00016880","DECAY_DATE":null,"EPHEMERIS_TYPE":"0","MEAN_MOTION_DOT":"0.00001125","ARG_OF_PERICENTER":"89.2246","MEAN_ELEMENT_THEORY":"SGP4","SITE":"AFETR","GP_ID":"188364518","TLE_LINE1":"1 45384U 20019AA  21301.74890011  .00001125  00000-0  94419-4 0  9993","REF_FRAME":"TEME","OBJECT_TYPE":"PAYLOAD","CLASSIFICATION_TYPE":"U","FILE":"3189402","BSTAR":"0.00009441900000","PERIOD":"95.592","EPOCH":"2021-10-28T17:58:24.969504","SEMIMAJOR_AXIS":"6925.333","MEAN_ANOMALY":"270.8936","LAUNCH_DATE":"2020-03-18","NORAD_CAT_ID":"45384","OBJECT_NAME":"STARLINK-1267","COUNTRY_CODE":"US","ELEMENT_SET_NO":"999","APOAPSIS":"548.367","INCLINATION":"53.0551","RCS_SIZE":"LARGE","PERIAPSIS":"546.029","CENTER_NAME":"EARTH","TIME_SYSTEM":"UTC","MEAN_MOTION":"15.06405238"},{"GP_ID":"188364768","TLE_LINE1":"1 45386U 20019AC  21301.75257199  .00000281  00000-0  37785-4 0  9995","CLASSIFICATION_TYPE":"U","OBJECT_TYPE":"PAYLOAD","REF_FRAME":"TEME","FILE":"3189402","ARG_OF_PERICENTER":"88.9917","MEAN_ELEMENT_THEORY":"SGP4","SITE":"AFETR","EPHEMERIS_TYPE":"0","MEAN_MOTION_DOT":"0.00000281","REV_AT_EPOCH":"8991","RA_OF_ASC_NODE":"97.5989","TLE_LINE2":"2 45386  53.0544  97.5989 0001283  88.9917 271.1219 15.06404436 89915","MEAN_MOTION_DDOT":"0.0000000000000","OBJECT_ID":"2020-019AC","DECAY_DATE":null,"ECCENTRICITY":"0.00012830","INCLINATION":"53.0544","APOAPSIS":"548.088","CENTER_NAME":"EARTH","PERIAPSIS":"546.311","RCS_SIZE":"LARGE","TIME_SYSTEM":"UTC","MEAN_MOTION":"15.06404436","OBJECT_NAME":"STARLINK-1272","NORAD_CAT_ID":"45386","ELEMENT_SET_NO":"999","COUNTRY_CODE":"US","MEAN_ANOMALY":"271.1219","LAUNCH_DATE":"2020-03-18","BSTAR":"0.00003778500000","EPOCH":"2021-10-28T18:03:42.219936","PERIOD":"95.592","SEMIMAJOR_AXIS":"6925.335"}];
